{
 "generated_at": "2026-06-22T10:39:18Z",
 "sources": [
  {
   "name": "CelesTrak",
   "url": "https://celestrak.org/NORAD/elements/",
   "license": "frei verfügbar; Attribution. Ursprünglich USSPACECOM/Space-Track."
  },
  {
   "name": "GCAT (J. McDowell, planet4589.org)",
   "url": "https://planet4589.org/space/gcat/",
   "license": "CC-BY 4.0"
  }
 ],
 "satellites": [
  {
   "norad": 43641,
   "name": "SAOCOM 1A",
   "intl": "2018-076A",
   "group": "sar",
   "gcat": {
    "class": "C",
    "category": "IMG-R",
    "owner": "CONAE",
    "state": "AR"
   },
   "omm": {
    "OBJECT_NAME": "SAOCOM 1A",
    "OBJECT_ID": "2018-076A",
    "EPOCH": "2026-06-21T12:34:54.050880",
    "MEAN_MOTION": 14.82149058,
    "ECCENTRICITY": 0.0001523,
    "INCLINATION": 97.8886,
    "RA_OF_ASC_NODE": 359.209,
    "ARG_OF_PERICENTER": 80.8959,
    "MEAN_ANOMALY": 279.2427,
    "EPHEMERIS_TYPE": 0,
    "CLASSIFICATION_TYPE": "U",
    "NORAD_CAT_ID": 43641,
    "ELEMENT_SET_NO": 999,
    "REV_AT_EPOCH": 41674,
    "BSTAR": -0.000019356,
    "MEAN_MOTION_DOT": -0.00000206,
    "MEAN_MOTION_DDOT": 0
   }
  },
  {
   "norad": 46265,
   "name": "SAOCOM 1B",
   "intl": "2020-059A",
   "group": "sar",
   "gcat": {
    "class": "C",
    "category": "IMG-R",
    "owner": "CONAE",
    "state": "AR"
   },
   "omm": {
    "OBJECT_NAME": "SAOCOM 1B",
    "OBJECT_ID": "2020-059A",
    "EPOCH": "2026-06-21T11:42:33.119712",
    "MEAN_MOTION": 14.8215066,
    "ECCENTRICITY": 0.0001631,
    "INCLINATION": 97.8892,
    "RA_OF_ASC_NODE": 358.2684,
    "ARG_OF_PERICENTER": 85.251,
    "MEAN_ANOMALY": 274.889,
    "EPHEMERIS_TYPE": 0,
    "CLASSIFICATION_TYPE": "U",
    "NORAD_CAT_ID": 46265,
    "ELEMENT_SET_NO": 999,
    "REV_AT_EPOCH": 31412,
    "BSTAR": 0.00009398,
    "MEAN_MOTION_DOT": 0.00000696,
    "MEAN_MOTION_DDOT": 0
   }
  },
  {
   "norad": 31797,
   "name": "SAR-LUPE 2",
   "intl": "2007-030A",
   "group": "sar",
   "gcat": {
    "class": "D",
    "category": "IMG-R",
    "owner": "BWB",
    "state": "D"
   },
   "omm": {
    "OBJECT_NAME": "SAR-LUPE 2",
    "OBJECT_ID": "2007-030A",
    "EPOCH": "2026-06-21T13:00:16.099200",
    "MEAN_MOTION": 15.50596132,
    "ECCENTRICITY": 0.0004119,
    "INCLINATION": 98.1044,
    "RA_OF_ASC_NODE": 277.5146,
    "ARG_OF_PERICENTER": 147.2297,
    "MEAN_ANOMALY": 212.9209,
    "EPHEMERIS_TYPE": 0,
    "CLASSIFICATION_TYPE": "U",
    "NORAD_CAT_ID": 31797,
    "ELEMENT_SET_NO": 999,
    "REV_AT_EPOCH": 5761,
    "BSTAR": 0.0005874,
    "MEAN_MOTION_DOT": 0.00033618,
    "MEAN_MOTION_DDOT": 0
   }
  },
  {
   "norad": 39086,
   "name": "SARAL",
   "intl": "2013-009A",
   "group": "resource",
   "gcat": {
    "class": "C",
    "category": "SCI",
    "owner": "ISRO/CNES",
    "state": "IN"
   },
   "omm": {
    "OBJECT_NAME": "SARAL",
    "OBJECT_ID": "2013-009A",
    "EPOCH": "2026-06-20T11:06:09.955872",
    "MEAN_MOTION": 14.32856589,
    "ECCENTRICITY": 0.0000619,
    "INCLINATION": 98.5558,
    "RA_OF_ASC_NODE": 357.9883,
    "ARG_OF_PERICENTER": 282.5589,
    "MEAN_ANOMALY": 77.5526,
    "EPHEMERIS_TYPE": 0,
    "CLASSIFICATION_TYPE": "U",
    "NORAD_CAT_ID": 39086,
    "ELEMENT_SET_NO": 999,
    "REV_AT_EPOCH": 69607,
    "BSTAR": 0.000032654,
    "MEAN_MOTION_DOT": 4.5e-7,
    "MEAN_MOTION_DDOT": 0
   }
  },
  {
   "norad": 43831,
   "name": "SAUDISAT 5A",
   "intl": "2018-102A",
   "group": "resource",
   "gcat": {
    "class": "C",
    "category": "TECH",
    "owner": "KACST",
    "state": "SA"
   },
   "omm": {
    "OBJECT_NAME": "SAUDISAT 5A",
    "OBJECT_ID": "2018-102A",
    "EPOCH": "2026-06-21T13:15:17.316864",
    "MEAN_MOTION": 15.2808539,
    "ECCENTRICITY": 0.0011211,
    "INCLINATION": 97.3063,
    "RA_OF_ASC_NODE": 234.0493,
    "ARG_OF_PERICENTER": 115.7884,
    "MEAN_ANOMALY": 244.4513,
    "EPHEMERIS_TYPE": 0,
    "CLASSIFICATION_TYPE": "U",
    "NORAD_CAT_ID": 43831,
    "ELEMENT_SET_NO": 999,
    "REV_AT_EPOCH": 41634,
    "BSTAR": 0.00015433,
    "MEAN_MOTION_DOT": 0.0000416,
    "MEAN_MOTION_DDOT": 0
   }
  },
  {
   "norad": 43833,
   "name": "SAUDISAT 5B",
   "intl": "2018-102C",
   "group": "resource",
   "gcat": {
    "class": "C",
    "category": "TECH",
    "owner": "KACST",
    "state": "SA"
   },
   "omm": {
    "OBJECT_NAME": "SAUDISAT 5B",
    "OBJECT_ID": "2018-102C",
    "EPOCH": "2026-06-21T12:07:05.511360",
    "MEAN_MOTION": 15.28339783,
    "ECCENTRICITY": 0.0011895,
    "INCLINATION": 97.3172,
    "RA_OF_ASC_NODE": 237.0803,
    "ARG_OF_PERICENTER": 117.9515,
    "MEAN_ANOMALY": 242.293,
    "EPHEMERIS_TYPE": 0,
    "CLASSIFICATION_TYPE": "U",
    "NORAD_CAT_ID": 43833,
    "ELEMENT_SET_NO": 999,
    "REV_AT_EPOCH": 41645,
    "BSTAR": 0.000151,
    "MEAN_MOTION_DOT": 0.00004101,
    "MEAN_MOTION_DDOT": 0
   }
  },
  {
   "norad": 41790,
   "name": "SCATSAT 1",
   "intl": "2016-059H",
   "group": "resource",
   "gcat": {
    "class": null,
    "category": null,
    "owner": null,
    "state": null
   },
   "omm": {
    "OBJECT_NAME": "SCATSAT 1",
    "OBJECT_ID": "2016-059H",
    "EPOCH": "2026-06-20T11:01:42.261024",
    "MEAN_MOTION": 14.79531207,
    "ECCENTRICITY": 0.0053498,
    "INCLINATION": 98.1189,
    "RA_OF_ASC_NODE": 235.2594,
    "ARG_OF_PERICENTER": 236.6981,
    "MEAN_ANOMALY": 122.91,
    "EPHEMERIS_TYPE": 0,
    "CLASSIFICATION_TYPE": "U",
    "NORAD_CAT_ID": 41790,
    "ELEMENT_SET_NO": 999,
    "REV_AT_EPOCH": 10207,
    "BSTAR": 0.00011295,
    "MEAN_MOTION_DOT": 0.00000807,
    "MEAN_MOTION_DDOT": 0
   }
  },
  {
   "norad": 22490,
   "name": "SCD 1",
   "intl": "1993-009B",
   "group": "resource",
   "gcat": {
    "class": "C",
    "category": "COM",
    "owner": "INPE",
    "state": "BR"
   },
   "omm": {
    "OBJECT_NAME": "SCD 1",
    "OBJECT_ID": "1993-009B",
    "EPOCH": "2026-06-20T07:58:07.994208",
    "MEAN_MOTION": 14.46119674,
    "ECCENTRICITY": 0.0041952,
    "INCLINATION": 24.9675,
    "RA_OF_ASC_NODE": 188.1587,
    "ARG_OF_PERICENTER": 170.9157,
    "MEAN_ANOMALY": 213.0702,
    "EPHEMERIS_TYPE": 0,
    "CLASSIFICATION_TYPE": "U",
    "NORAD_CAT_ID": 22490,
    "ELEMENT_SET_NO": 999,
    "REV_AT_EPOCH": 76157,
    "BSTAR": 0.00003451,
    "MEAN_MOTION_DOT": 0.00000313,
    "MEAN_MOTION_DDOT": 0
   }
  },
  {
   "norad": 25504,
   "name": "SCD 2",
   "intl": "1998-060A",
   "group": "resource",
   "gcat": {
    "class": "C",
    "category": "COM",
    "owner": "INPE",
    "state": "BR"
   },
   "omm": {
    "OBJECT_NAME": "SCD 2",
    "OBJECT_ID": "1998-060A",
    "EPOCH": "2026-06-20T01:48:34.661088",
    "MEAN_MOTION": 14.45526782,
    "ECCENTRICITY": 0.0016856,
    "INCLINATION": 24.996,
    "RA_OF_ASC_NODE": 54.3455,
    "ARG_OF_PERICENTER": 153.1205,
    "MEAN_ANOMALY": 320.9038,
    "EPHEMERIS_TYPE": 0,
    "CLASSIFICATION_TYPE": "U",
    "NORAD_CAT_ID": 25504,
    "ELEMENT_SET_NO": 999,
    "REV_AT_EPOCH": 46074,
    "BSTAR": 0.000044252353,
    "MEAN_MOTION_DOT": 0.00000341,
    "MEAN_MOTION_DDOT": 0
   }
  },
  {
   "norad": 39634,
   "name": "SENTINEL-1A",
   "intl": "2014-016A",
   "group": "resource",
   "gcat": {
    "class": "C",
    "category": "IMG-R",
    "owner": "ESA",
    "state": "I-ESA"
   },
   "omm": {
    "OBJECT_NAME": "SENTINEL-1A",
    "OBJECT_ID": "2014-016A",
    "EPOCH": "2026-06-21T11:33:45.543168",
    "MEAN_MOTION": 14.59201426,
    "ECCENTRICITY": 0.0001391,
    "INCLINATION": 98.1781,
    "RA_OF_ASC_NODE": 179.9521,
    "ARG_OF_PERICENTER": 81.1545,
    "MEAN_ANOMALY": 278.9812,
    "EPHEMERIS_TYPE": 0,
    "CLASSIFICATION_TYPE": "U",
    "NORAD_CAT_ID": 39634,
    "ELEMENT_SET_NO": 999,
    "REV_AT_EPOCH": 65064,
    "BSTAR": 0.00010548,
    "MEAN_MOTION_DOT": 0.00000452,
    "MEAN_MOTION_DDOT": 0
   }
  },
  {
   "norad": 62261,
   "name": "SENTINEL-1C",
   "intl": "2024-235A",
   "group": "sar",
   "gcat": {
    "class": "C",
    "category": "IMG-R",
    "owner": "COPERN/ESA",
    "state": "I-EU"
   },
   "omm": {
    "OBJECT_NAME": "SENTINEL-1C",
    "OBJECT_ID": "2024-235A",
    "EPOCH": "2026-06-21T12:29:26.234592",
    "MEAN_MOTION": 14.58605967,
    "ECCENTRICITY": 0.0001373,
    "INCLINATION": 98.1821,
    "RA_OF_ASC_NODE": 179.7661,
    "ARG_OF_PERICENTER": 90.9567,
    "MEAN_ANOMALY": 269.179,
    "EPHEMERIS_TYPE": 0,
    "CLASSIFICATION_TYPE": "U",
    "NORAD_CAT_ID": 62261,
    "ELEMENT_SET_NO": 999,
    "REV_AT_EPOCH": 8204,
    "BSTAR": 0.000032781,
    "MEAN_MOTION_DOT": 0.00000107,
    "MEAN_MOTION_DDOT": 0
   }
  },
  {
   "norad": 66315,
   "name": "SENTINEL-1D",
   "intl": "2025-251A",
   "group": "sar",
   "gcat": {
    "class": "C",
    "category": "IMG-R",
    "owner": "COPERN/ESA",
    "state": "I-EU"
   },
   "omm": {
    "OBJECT_NAME": "SENTINEL-1D",
    "OBJECT_ID": "2025-251A",
    "EPOCH": "2026-06-19T23:28:57.428544",
    "MEAN_MOTION": 14.5919706,
    "ECCENTRICITY": 0.00013688,
    "INCLINATION": 98.1826,
    "RA_OF_ASC_NODE": 178.2989,
    "ARG_OF_PERICENTER": 88.7599,
    "MEAN_ANOMALY": 271.3758,
    "EPHEMERIS_TYPE": 0,
    "CLASSIFICATION_TYPE": "U",
    "NORAD_CAT_ID": 66315,
    "ELEMENT_SET_NO": 999,
    "REV_AT_EPOCH": 3313,
    "BSTAR": 0.000032101034,
    "MEAN_MOTION_DOT": 0.00000106,
    "MEAN_MOTION_DDOT": 0
   }
  },
  {
   "norad": 40697,
   "name": "SENTINEL-2A",
   "intl": "2015-028A",
   "group": "resource",
   "gcat": {
    "class": "C",
    "category": "IMG",
    "owner": "COPERN/ESA",
    "state": "I-EU"
   },
   "omm": {
    "OBJECT_NAME": "SENTINEL-2A",
    "OBJECT_ID": "2015-028A",
    "EPOCH": "2026-06-21T11:31:49.147680",
    "MEAN_MOTION": 14.30817044,
    "ECCENTRICITY": 0.0001119,
    "INCLINATION": 98.5679,
    "RA_OF_ASC_NODE": 247.2715,
    "ARG_OF_PERICENTER": 92.5199,
    "MEAN_ANOMALY": 267.6112,
    "EPHEMERIS_TYPE": 0,
    "CLASSIFICATION_TYPE": "U",
    "NORAD_CAT_ID": 40697,
    "ELEMENT_SET_NO": 999,
    "REV_AT_EPOCH": 57434,
    "BSTAR": 0.00012533,
    "MEAN_MOTION_DOT": 0.00000285,
    "MEAN_MOTION_DDOT": 0
   }
  }
 ]
}
